#aV2008  6 28  0  0   .00000000      96 DD+AD WGS84 FIT  NGA
## 1485 518400.00000000   900.00000000 54645  .0000000000000
+   31     2  3  4  5  6  7  8  9 10 11 12 13 14 15 16 17 18
+         19 20 21 22 23 24 25 26 27 28 29 30 31 32  0  0  0
+          0  0  0  0  0  0  0  0  0  0  0  0  0  0  0  0  0
+          0  0  0  0  0  0  0  0  0  0  0  0  0  0  0  0  0
+          0  0  0  0  0  0  0  0  0  0  0  0  0  0  0  0  0
++         0  0  0  0  0  0  0  0  0  0  0  0  0  0  0  0  0
++         0  0  0  0  0  0  0  0  0  0  0  0  0  0  0  0  0
++         0  0  0  0  0  0  0  0  0  0  0  0  0  0  0  0  0
++         0  0  0  0  0  0  0  0  0  0  0  0  0  0  0  0  0
++         0  0  0  0  0  0  0  0  0  0  0  0  0  0  0  0  0
%c cc cc ccc ccc cccc cccc cccc cccc ccccc ccccc ccccc ccccc
%c cc cc ccc ccc cccc cccc cccc cccc ccccc ccccc ccccc ccccc
%f  0.0000000  0.000000000  0.00000000000  0.000000000000000
%f  0.0000000  0.000000000  0.00000000000  0.000000000000000
%i    0    0    0    0      0      0      0      0         0
%i    0    0    0    0      0      0      0      0         0
/*      NGA, ST. LOUIS,MO.                                  
/*   EPHEMERIS COMPUTED FROM  3 DAYS OF DATA                
/* CCCCCCCCCCCCCCCCCCCCCCCCCCCCCCCCCCCCCCCCCCCCCCCCCCCCCCCCC
/* CCCCCCCCCCCCCCCCCCCCCCCCCCCCCCCCCCCCCCCCCCCCCCCCCCCCCCCCC
*  2008  6 28  1 15   .00000000                                                 
P  2 -17286.818832   1910.273661 -20129.219928    204.950186                    
V  2  10152.122509 -23310.148671 -11372.019743      -.015159                    
P  3  19788.855767   3885.856265  17194.488978    248.021303                    
V  3  12372.193914  18708.385393 -17837.885317       .052540                    
P  4 -12741.971697  -9267.942468 -21458.506195   -101.587325                    
V  4  12999.375134 -23796.764794   2929.571954      -.093575                    
P  5 -12791.456007  15015.496471 -17994.460759   -378.483069                    
V  5 -22453.625785   1305.432670  17459.286479       .129114                    
P  6  20043.678269   8874.395235  15179.241913    154.307261                    
V  6   8883.116849  17011.306369 -21979.877871       .051138                    
P  7   5928.428882 -24424.146828   8439.809024    -13.167670                    
V  7   7239.609797  -8399.020628 -29361.854902       .064852                    
P  8  -3227.493616 -18664.813062  18325.467479   -159.407177                    
V  8  13103.170180 -19639.465089 -18075.601242      -.016951                    
P  9 -14311.469163  21344.366860   5743.386689      2.737882                    
V  9   1080.836186  -8483.015015  30969.487695       .016923                    
P 10 -26731.978900    631.327862    -53.241820     -2.512844                    
V 10   -158.852237  -2454.723067 -31600.739384      -.003012                    
P 11  11099.718189 -23336.275234   5185.657212     24.134811                    
V 11   3012.934577   8073.035226  29349.960660      -.004692                    
P 12 -17891.031087  11697.883140 -15612.223055   -357.962429                    
V 12 -20087.608467  -1018.222286  22228.582832       .005439                    
P 13  -4017.083663 -23135.194650 -12547.030364    261.591855                    
V 13   9060.214323  12871.465025 -26877.209968       .015471                    
P 14  15457.520460  21403.260026  -3289.843331   -250.516458                    
V 14    655.102615   4600.894721  31940.829261       .043217                    
P 15 -14340.981179   5875.948815  21590.802243   -133.706824                    
V 15 -14856.165863 -22999.366410  -3601.850934      -.062017                    
P 16  26030.097580   2692.723205  -5077.234737    119.403912                    
V 16  -6415.429757   2625.393902 -30868.249809      -.016392                    
P 17 -16119.030019 -20908.574503  -3593.510211     38.582909                    
V 17   -160.870348  -5327.394864  31178.452534      -.000485                    
P 18   2168.249610  15525.764340  21642.590203   -162.649006                    
V 18 -27071.344493    447.600203   2046.450786       .042205                    
P 19  14235.753265  -5891.468186  21729.384712     32.712448                    
V 19  13146.103007  24030.026083  -1916.037657       .005924                    
P 20  16205.610862 -13067.284463 -16587.162697    111.158525                    
V 20  20993.841736    648.951699  20177.256363      -.008621                    
P 21  -1190.073440  22739.022044  13341.111214     59.854546                    
V 21 -10899.337282  13343.113348 -24683.180978      -.012378                    
P 22  16510.194413  12183.665667  17051.662018    211.485300                    
V 22 -21362.438091   2130.442453  19278.392188      -.001769                    
P 23   5723.379160 -16455.440891 -20040.477861    361.597426                    
V 23  14626.481486  20725.133639 -13131.306890       .019305                    
P 24 -12747.099052  23458.514371   1018.033387    105.220153                    
V 24  -2996.135715   -480.085215 -31360.958963       .029023                    
P 25   8828.860952 -25124.933014   1572.209249   -177.949882                    
V 25   2904.830348   -517.347074 -31655.505709      -.056820                    
P 26 -15846.245192   -104.956556  20930.892585    282.248231                    
V 26 -13525.418396 -23977.584202  -9606.772107       .071143                    
P 27   2257.255928 -24215.058538  11185.364747    198.762031                    
V 27   7256.247170 -11262.312215 -27645.069828       .028574                    
P 28 -15119.757023 -12470.904820  18464.309928    -20.501027                    
V 28  22496.639088  -1709.788560  17312.087029      -.003047                    
P 29   1526.352833  22033.888314 -14654.171416    -42.232553                    
V 29 -11693.156766 -14885.854560 -23378.417784       .004513                    
P 30  -4169.328369  15718.099726 -21330.268409     83.252501                    
V 30 -26300.848289   1705.223140   6602.546937       .018841                    
P 31  12937.948293   7534.726344 -21735.700195    -24.891964                    
V 31 -12836.881487  24951.935407   1106.688959      -.012623                    
P 32  23528.782602  -6118.352046 -10080.080777    302.148377                    
V 32  13367.641504   2964.418811  28393.504234       .036838                    
EOF
